[{"OBJECT_NAME":"HST","OBJECT_ID":"1990-037B","EPOCH":"2026-03-09T03:50:04.164288","MEAN_MOTION":15.29473555,"ECCENTRICITY":0.00018372,"INCLINATION":28.4717,"RA_OF_ASC_NODE":43.6133,"ARG_OF_PERICENTER":120.9992,"MEAN_ANOMALY":239.0785,"EPHEMERIS_TYPE":0,"CLASSIFICATION_TYPE":"U","NORAD_CAT_ID":20580,"ELEMENT_SET_NO":999,"REV_AT_EPOCH":77323,"BSTAR":0.0003002261,"MEAN_MOTION_DOT":9.063e-5,"MEAN_MOTION_DDOT":0},{"OBJECT_NAME":"STARLINK-31373","OBJECT_ID":"2024-031A","EPOCH":"2026-03-09T22:13:51.709152","MEAN_MOTION":15.30181005,"ECCENTRICITY":9.985e-5,"INCLINATION":53.1604,"RA_OF_ASC_NODE":295.2987,"ARG_OF_PERICENTER":93.1111,"MEAN_ANOMALY":267.0004,"EPHEMERIS_TYPE":0,"CLASSIFICATION_TYPE":"U","NORAD_CAT_ID":58965,"ELEMENT_SET_NO":999,"REV_AT_EPOCH":11657,"BSTAR":-1.7124303e-5,"MEAN_MOTION_DOT":-8.66e-6,"MEAN_MOTION_DDOT":0}]
